[ {"CCSDS_OMM_VERS": "2.0", "COMMENT": "GENERATED VIA SPACE-TRACK.ORG API", "CREATION_DATE": "2021-12-06T06:36:11", "ORIGINATOR": "18 SPCS", "OBJECT_NAME": "GRACE-FO 1", "OBJECT_ID": "2018-047A", "CENTER_NAME": "EARTH", "REF_FRAME": "TEME", "TIME_SYSTEM": "UTC", "MEAN_ELEMENT_THEORY": "SGP4", "EPOCH": "2021-12-06T03:46:27.594048", "MEAN_MOTION": "15.24319533", "ECCENTRICITY": "0.00177350", "INCLINATION": "88.9852", "RA_OF_ASC_NODE": "64.7574", "ARG_OF_PERICENTER": "20.7787", "MEAN_ANOMALY": "339.4178", "EPHEMERIS_TYPE": "0", "CLASSIFICATION_TYPE": "U", "NORAD_CAT_ID": "43476", "ELEMENT_SET_NO": "999", "REV_AT_EPOCH": "19696", "BSTAR": "0.00002632600000", "MEAN_MOTION_DOT": "0.00000677", "MEAN_MOTION_DDOT": "0.0000000000000", "SEMIMAJOR_AXIS": "6870.967", "PERIOD": "94.468", "APOAPSIS": "505.017", "PERIAPSIS": "480.646", "OBJECT_TYPE": "PAYLOAD", "RCS_SIZE": "MEDIUM", "COUNTRY_CODE": "US", "LAUNCH_DATE": "2018-05-22", "SITE": "AFWTR", "DECAY_DATE": null, "FILE": "3233556", "GP_ID": "191174186", "TLE_LINE0": "0 GRACE-FO 1", "TLE_LINE1": "1 43476U 18047A   21340.15726382  .00000677  00000-0  26326-4 0  9991", "TLE_LINE2": "2 43476  88.9852  64.7574 0017735  20.7787 339.4178 15.24319533196965"}, {"CCSDS_OMM_VERS": "2.0", "COMMENT": "GENERATED VIA SPACE-TRACK.ORG API", "CREATION_DATE": "2021-12-06T06:36:11", "ORIGINATOR": "18 SPCS", "OBJECT_NAME": "GRACE-FO 2", "OBJECT_ID": "2018-047B", "CENTER_NAME": "EARTH", "REF_FRAME": "TEME", "TIME_SYSTEM": "UTC", "MEAN_ELEMENT_THEORY": "SGP4", "EPOCH": "2021-12-06T03:46:55.337088", "MEAN_MOTION": "15.24319695", "ECCENTRICITY": "0.00177300", "INCLINATION": "88.9851", "RA_OF_ASC_NODE": "64.7607", "ARG_OF_PERICENTER": "20.7965", "MEAN_ANOMALY": "339.4000", "EPHEMERIS_TYPE": "0", "CLASSIFICATION_TYPE": "U", "NORAD_CAT_ID": "43477", "ELEMENT_SET_NO": "999", "REV_AT_EPOCH": "19696", "BSTAR": "0.00002624800000", "MEAN_MOTION_DOT": "0.00000675", "MEAN_MOTION_DDOT": "0.0000000000000", "SEMIMAJOR_AXIS": "6870.966", "PERIOD": "94.468", "APOAPSIS": "505.013", "PERIAPSIS": "480.649", "OBJECT_TYPE": "PAYLOAD", "RCS_SIZE": "MEDIUM", "COUNTRY_CODE": "US", "LAUNCH_DATE": "2018-05-22", "SITE": "AFWTR", "DECAY_DATE": null, "FILE": "3233586", "GP_ID": "191174331", "TLE_LINE0": "0 GRACE-FO 2", "TLE_LINE1": "1 43477U 18047B   21340.15758492  .00000675  00000-0  26248-4 0  9990", "TLE_LINE2": "2 43477  88.9851  64.7607 0017730  20.7965 339.4000 15.24319695196968"}, {"CCSDS_OMM_VERS": "2.0", "COMMENT": "GENERATED VIA SPACE-TRACK.ORG API", "CREATION_DATE": "2021-12-06T07:16:10", "ORIGINATOR": "18 SPCS", "OBJECT_NAME": "AMAZONIA 1", "OBJECT_ID": "2021-015A", "CENTER_NAME": "EARTH", "REF_FRAME": "TEME", "TIME_SYSTEM": "UTC", "MEAN_ELEMENT_THEORY": "SGP4", "EPOCH": "2021-12-05T22:21:55.438560", "MEAN_MOTION": "14.40815635", "ECCENTRICITY": "0.00010700", "INCLINATION": "98.4828", "RA_OF_ASC_NODE": "53.5127", "ARG_OF_PERICENTER": "116.5801", "MEAN_ANOMALY": "243.5506", "EPHEMERIS_TYPE": "0", "CLASSIFICATION_TYPE": "U", "NORAD_CAT_ID": "47699", "ELEMENT_SET_NO": "999", "REV_AT_EPOCH": "4043", "BSTAR": "0.00000000000000", "MEAN_MOTION_DOT": "-0.00000044", "MEAN_MOTION_DDOT": "0.0000000000000", "SEMIMAJOR_AXIS": "7133.942", "PERIOD": "99.943", "APOAPSIS": "756.570", "PERIAPSIS": "755.044", "OBJECT_TYPE": "PAYLOAD", "RCS_SIZE": "LARGE", "COUNTRY_CODE": "BRAZ", "LAUNCH_DATE": "2021-02-28", "SITE": "SRI", "DECAY_DATE": null, "FILE": "3233723", "GP_ID": "191177311", "TLE_LINE0": "0 AMAZONIA 1", "TLE_LINE1": "1 47699U 21015A   21339.93189165 -.00000044  00000-0  00000+0 0  9992", "TLE_LINE2": "2 47699  98.4828  53.5127 0001070 116.5801 243.5506 14.40815635 40432"}]